<?xml version='1.0' encoding='utf-8'?>
<TrainingCenterDatabase xmlns:ns2="http://www.garmin.com/xmlschemas/UserProfile/v2" xmlns:ns3="http://www.garmin.com/xmlschemas/ActivityExtension/v2" xmlns:ns5="http://www.garmin.com/xmlschemas/ActivityGoals/v1" xmlns:xsi="http://www.w3.org/2001/XMLSchema-instance" xmlns="http://www.garmin.com/xmlschemas/TrainingCenterDatabase/v2" xsi:schemaLocation="http://www.garmin.com/xmlschemas/TrainingCenterDatabase/v2 http://www.garmin.com/xmlschemas/TrainingCenterDatabasev2.xsd">
  <Activities>
    <Activity Sport="Biking">
      <Id>2010-10-19T20:56:35Z</Id>
      <Lap StartTime="2010-10-19T20:56:35Z">
        <TotalTimeSeconds>59</TotalTimeSeconds>
        <DistanceMeters>286.03995</DistanceMeters>
        <MaximumSpeed>0</MaximumSpeed>
        <Calories>0</Calories>
        <AverageHeartRateBpm>
          <Value>0</Value>
        </AverageHeartRateBpm>
        <MaximumHeartRateBpm>
          <Value>0</Value>
        </MaximumHeartRateBpm>
        <Intensity>Active</Intensity>
        <Cadence>0</Cadence>
        <TriggerMethod>Manual</TriggerMethod>
        <Track>
          <Trackpoint>
            <Time>2010-10-19T20:56:35Z</Time>
            <AltitudeMeters>0.0</AltitudeMeters>
            <HeartRateBpm>
              <Value>86</Value>
            </HeartRateBpm>
            <Cadence>67</Cadence>
            <DistanceMeters>1.40583</DistanceMeters>
            <Extensions>
              <TPX xmlns="http://www.garmin.com/xmlschemas/ActivityExtension/v2">
                <Watts>75</Watts>
              </TPX>
            </Extensions>
          </Trackpoint>
          <Trackpoint>
            <Time>2010-10-19T20:56:36Z</Time>
            <AltitudeMeters>0.0</AltitudeMeters>
            <HeartRateBpm>
              <Value>86</Value>
            </HeartRateBpm>
            <Cadence>68</Cadence>
            <DistanceMeters>3.35672</DistanceMeters>
            <Extensions>
              <TPX xmlns="http://www.garmin.com/xmlschemas/ActivityExtension/v2">
                <Watts>75</Watts>
              </TPX>
            </Extensions>
          </Trackpoint>
          <Trackpoint>
            <Time>2010-10-19T20:56:37Z</Time>
            <AltitudeMeters>0.0</AltitudeMeters>
            <HeartRateBpm>
              <Value>86</Value>
            </HeartRateBpm>
            <Cadence>68</Cadence>
            <DistanceMeters>5.60633</DistanceMeters>
            <Extensions>
              <TPX xmlns="http://www.garmin.com/xmlschemas/ActivityExtension/v2">
                <Watts>56</Watts>
              </TPX>
            </Extensions>
          </Trackpoint>
          <Trackpoint>
            <Time>2010-10-19T20:56:38Z</Time>
            <AltitudeMeters>0.0</AltitudeMeters>
            <HeartRateBpm>
              <Value>86</Value>
            </HeartRateBpm>
            <Cadence>68</Cadence>
            <DistanceMeters>8.00787</DistanceMeters>
            <Extensions>
              <TPX xmlns="http://www.garmin.com/xmlschemas/ActivityExtension/v2">
                <Watts>37</Watts>
              </TPX>
            </Extensions>
          </Trackpoint>
          <Trackpoint>
            <Time>2010-10-19T20:56:39Z</Time>
            <AltitudeMeters>0.0</AltitudeMeters>
            <HeartRateBpm>
              <Value>86</Value>
            </HeartRateBpm>
            <Cadence>34</Cadence>
            <DistanceMeters>10.54712</DistanceMeters>
            <Extensions>
              <TPX xmlns="http://www.garmin.com/xmlschemas/ActivityExtension/v2">
                <Watts>37</Watts>
              </TPX>
            </Extensions>
          </Trackpoint>
          <Trackpoint>
            <Time>2010-10-19T20:56:40Z</Time>
            <AltitudeMeters>0.0</AltitudeMeters>
            <HeartRateBpm>
              <Value>86</Value>
            </HeartRateBpm>
            <Cadence>34</Cadence>
            <DistanceMeters>13.21223</DistanceMeters>
            <Extensions>
              <TPX xmlns="http://www.garmin.com/xmlschemas/ActivityExtension/v2">
                <Watts>37</Watts>
              </TPX>
            </Extensions>
          </Trackpoint>
          <Trackpoint>
            <Time>2010-10-19T20:56:41Z</Time>
            <AltitudeMeters>0.0</AltitudeMeters>
            <HeartRateBpm>
              <Value>86</Value>
            </HeartRateBpm>
            <Cadence>34</Cadence>
            <DistanceMeters>15.99318</DistanceMeters>
            <Extensions>
              <TPX xmlns="http://www.garmin.com/xmlschemas/ActivityExtension/v2">
                <Watts>37</Watts>
              </TPX>
            </Extensions>
          </Trackpoint>
          <Trackpoint>
            <Time>2010-10-19T20:56:42Z</Time>
            <AltitudeMeters>0.0</AltitudeMeters>
            <HeartRateBpm>
              <Value>85</Value>
            </HeartRateBpm>
            <Cadence>34</Cadence>
            <DistanceMeters>18.92654</DistanceMeters>
            <Extensions>
              <TPX xmlns="http://www.garmin.com/xmlschemas/ActivityExtension/v2">
                <Watts>47</Watts>
              </TPX>
            </Extensions>
          </Trackpoint>
          <Trackpoint>
            <Time>2010-10-19T20:56:43Z</Time>
            <AltitudeMeters>0.0</AltitudeMeters>
            <HeartRateBpm>
              <Value>85</Value>
            </HeartRateBpm>
            <Cadence>0</Cadence>
            <DistanceMeters>21.93886</DistanceMeters>
            <Extensions>
              <TPX xmlns="http://www.garmin.com/xmlschemas/ActivityExtension/v2">
                <Watts>33</Watts>
              </TPX>
            </Extensions>
          </Trackpoint>
          <Trackpoint>
            <Time>2010-10-19T20:56:44Z</Time>
            <AltitudeMeters>0.0</AltitudeMeters>
            <HeartRateBpm>
              <Value>85</Value>
            </HeartRateBpm>
            <Cadence>0</Cadence>
            <DistanceMeters>25.02528</DistanceMeters>
            <Extensions>
              <TPX xmlns="http://www.garmin.com/xmlschemas/ActivityExtension/v2">
                <Watts>33</Watts>
              </TPX>
            </Extensions>
          </Trackpoint>
          <Trackpoint>
            <Time>2010-10-19T20:56:45Z</Time>
            <AltitudeMeters>0.0</AltitudeMeters>
            <HeartRateBpm>
              <Value>85</Value>
            </HeartRateBpm>
            <Cadence>0</Cadence>
            <DistanceMeters>28.08815</DistanceMeters>
            <Extensions>
              <TPX xmlns="http://www.garmin.com/xmlschemas/ActivityExtension/v2">
                <Watts>11</Watts>
              </TPX>
            </Extensions>
          </Trackpoint>
          <Trackpoint>
            <Time>2010-10-19T20:56:46Z</Time>
            <AltitudeMeters>0.0</AltitudeMeters>
            <HeartRateBpm>
              <Value>86</Value>
            </HeartRateBpm>
            <Cadence>0</Cadence>
            <DistanceMeters>31.12818</DistanceMeters>
            <Extensions>
              <TPX xmlns="http://www.garmin.com/xmlschemas/ActivityExtension/v2">
                <Watts>11</Watts>
              </TPX>
            </Extensions>
          </Trackpoint>
          <Trackpoint>
            <Time>2010-10-19T20:56:47Z</Time>
            <AltitudeMeters>0.0</AltitudeMeters>
            <HeartRateBpm>
              <Value>86</Value>
            </HeartRateBpm>
            <Cadence>0</Cadence>
            <DistanceMeters>34.14169</DistanceMeters>
            <Extensions>
              <TPX xmlns="http://www.garmin.com/xmlschemas/ActivityExtension/v2">
                <Watts>10</Watts>
              </TPX>
            </Extensions>
          </Trackpoint>
          <Trackpoint>
            <Time>2010-10-19T20:56:48Z</Time>
            <AltitudeMeters>0.0</AltitudeMeters>
            <HeartRateBpm>
              <Value>95</Value>
            </HeartRateBpm>
            <Cadence>53</Cadence>
            <DistanceMeters>37.27162</DistanceMeters>
            <Extensions>
              <TPX xmlns="http://www.garmin.com/xmlschemas/ActivityExtension/v2">
                <Watts>43</Watts>
              </TPX>
            </Extensions>
          </Trackpoint>
          <Trackpoint>
            <Time>2010-10-19T20:56:49Z</Time>
            <AltitudeMeters>0.0</AltitudeMeters>
            <HeartRateBpm>
              <Value>95</Value>
            </HeartRateBpm>
            <Cadence>69</Cadence>
            <DistanceMeters>40.56610</DistanceMeters>
            <Extensions>
              <TPX xmlns="http://www.garmin.com/xmlschemas/ActivityExtension/v2">
                <Watts>57</Watts>
              </TPX>
            </Extensions>
          </Trackpoint>
          <Trackpoint>
            <Time>2010-10-19T20:56:50Z</Time>
            <AltitudeMeters>0.0</AltitudeMeters>
            <HeartRateBpm>
              <Value>95</Value>
            </HeartRateBpm>
            <Cadence>68</Cadence>
            <DistanceMeters>44.04949</DistanceMeters>
            <Extensions>
              <TPX xmlns="http://www.garmin.com/xmlschemas/ActivityExtension/v2">
                <Watts>67</Watts>
              </TPX>
            </Extensions>
          </Trackpoint>
          <Trackpoint>
            <Time>2010-10-19T20:56:51Z</Time>
            <AltitudeMeters>0.0</AltitudeMeters>
            <HeartRateBpm>
              <Value>96</Value>
            </HeartRateBpm>
            <Cadence>70</Cadence>
            <DistanceMeters>47.72688</DistanceMeters>
            <Extensions>
              <TPX xmlns="http://www.garmin.com/xmlschemas/ActivityExtension/v2">
                <Watts>73</Watts>
              </TPX>
            </Extensions>
          </Trackpoint>
          <Trackpoint>
            <Time>2010-10-19T20:56:52Z</Time>
            <AltitudeMeters>0.0</AltitudeMeters>
            <HeartRateBpm>
              <Value>96</Value>
            </HeartRateBpm>
            <Cadence>71</Cadence>
            <DistanceMeters>51.58831</DistanceMeters>
            <Extensions>
              <TPX xmlns="http://www.garmin.com/xmlschemas/ActivityExtension/v2">
                <Watts>75</Watts>
              </TPX>
            </Extensions>
          </Trackpoint>
          <Trackpoint>
            <Time>2010-10-19T20:56:53Z</Time>
            <AltitudeMeters>0.0</AltitudeMeters>
            <HeartRateBpm>
              <Value>97</Value>
            </HeartRateBpm>
            <Cadence>71</Cadence>
            <DistanceMeters>55.61528</DistanceMeters>
            <Extensions>
              <TPX xmlns="http://www.garmin.com/xmlschemas/ActivityExtension/v2">
                <Watts>74</Watts>
              </TPX>
            </Extensions>
          </Trackpoint>
          <Trackpoint>
            <Time>2010-10-19T20:56:54Z</Time>
            <AltitudeMeters>0.0</AltitudeMeters>
            <HeartRateBpm>
              <Value>98</Value>
            </HeartRateBpm>
            <Cadence>71</Cadence>
            <DistanceMeters>59.79490</DistanceMeters>
            <Extensions>
              <TPX xmlns="http://www.garmin.com/xmlschemas/ActivityExtension/v2">
                <Watts>74</Watts>
              </TPX>
            </Extensions>
          </Trackpoint>
          <Trackpoint>
            <Time>2010-10-19T20:56:55Z</Time>
            <AltitudeMeters>0.0</AltitudeMeters>
            <HeartRateBpm>
              <Value>98</Value>
            </HeartRateBpm>
            <Cadence>71</Cadence>
            <DistanceMeters>64.11886</DistanceMeters>
            <Extensions>
              <TPX xmlns="http://www.garmin.com/xmlschemas/ActivityExtension/v2">
                <Watts>75</Watts>
              </TPX>
            </Extensions>
          </Trackpoint>
          <Trackpoint>
            <Time>2010-10-19T20:56:56Z</Time>
            <AltitudeMeters>0.0</AltitudeMeters>
            <HeartRateBpm>
              <Value>98</Value>
            </HeartRateBpm>
            <Cadence>71</Cadence>
            <DistanceMeters>68.57377</DistanceMeters>
            <Extensions>
              <TPX xmlns="http://www.garmin.com/xmlschemas/ActivityExtension/v2">
                <Watts>74</Watts>
              </TPX>
            </Extensions>
          </Trackpoint>
          <Trackpoint>
            <Time>2010-10-19T20:56:57Z</Time>
            <AltitudeMeters>0.0</AltitudeMeters>
            <HeartRateBpm>
              <Value>97</Value>
            </HeartRateBpm>
            <Cadence>71</Cadence>
            <DistanceMeters>73.15055</DistanceMeters>
            <Extensions>
              <TPX xmlns="http://www.garmin.com/xmlschemas/ActivityExtension/v2">
                <Watts>74</Watts>
              </TPX>
            </Extensions>
          </Trackpoint>
          <Trackpoint>
            <Time>2010-10-19T20:56:58Z</Time>
            <AltitudeMeters>0.0</AltitudeMeters>
            <HeartRateBpm>
              <Value>97</Value>
            </HeartRateBpm>
            <Cadence>70</Cadence>
            <DistanceMeters>77.84096</DistanceMeters>
            <Extensions>
              <TPX xmlns="http://www.garmin.com/xmlschemas/ActivityExtension/v2">
                <Watts>74</Watts>
              </TPX>
            </Extensions>
          </Trackpoint>
          <Trackpoint>
            <Time>2010-10-19T20:56:59Z</Time>
            <AltitudeMeters>0.0</AltitudeMeters>
            <HeartRateBpm>
              <Value>96</Value>
            </HeartRateBpm>
            <Cadence>71</Cadence>
            <DistanceMeters>82.63751</DistanceMeters>
            <Extensions>
              <TPX xmlns="http://www.garmin.com/xmlschemas/ActivityExtension/v2">
                <Watts>74</Watts>
              </TPX>
            </Extensions>
          </Trackpoint>
          <Trackpoint>
            <Time>2010-10-19T20:57:00Z</Time>
            <AltitudeMeters>0.0</AltitudeMeters>
            <HeartRateBpm>
              <Value>95</Value>
            </HeartRateBpm>
            <Cadence>70</Cadence>
            <DistanceMeters>87.53334</DistanceMeters>
            <Extensions>
              <TPX xmlns="http://www.garmin.com/xmlschemas/ActivityExtension/v2">
                <Watts>74</Watts>
              </TPX>
            </Extensions>
          </Trackpoint>
          <Trackpoint>
            <Time>2010-10-19T20:57:01Z</Time>
            <AltitudeMeters>0.0</AltitudeMeters>
            <HeartRateBpm>
              <Value>95</Value>
            </HeartRateBpm>
            <Cadence>70</Cadence>
            <DistanceMeters>92.52216</DistanceMeters>
            <Extensions>
              <TPX xmlns="http://www.garmin.com/xmlschemas/ActivityExtension/v2">
                <Watts>74</Watts>
              </TPX>
            </Extensions>
          </Trackpoint>
          <Trackpoint>
            <Time>2010-10-19T20:57:02Z</Time>
            <AltitudeMeters>0.0</AltitudeMeters>
            <HeartRateBpm>
              <Value>94</Value>
            </HeartRateBpm>
            <Cadence>69</Cadence>
            <DistanceMeters>97.60075</DistanceMeters>
            <Extensions>
              <TPX xmlns="http://www.garmin.com/xmlschemas/ActivityExtension/v2">
                <Watts>75</Watts>
              </TPX>
            </Extensions>
          </Trackpoint>
          <Trackpoint>
            <Time>2010-10-19T20:57:03Z</Time>
            <AltitudeMeters>0.0</AltitudeMeters>
            <HeartRateBpm>
              <Value>94</Value>
            </HeartRateBpm>
            <Cadence>70</Cadence>
            <DistanceMeters>102.76609</DistanceMeters>
            <Extensions>
              <TPX xmlns="http://www.garmin.com/xmlschemas/ActivityExtension/v2">
                <Watts>76</Watts>
              </TPX>
            </Extensions>
          </Trackpoint>
          <Trackpoint>
            <Time>2010-10-19T20:57:04Z</Time>
            <AltitudeMeters>0.0</AltitudeMeters>
            <HeartRateBpm>
              <Value>94</Value>
            </HeartRateBpm>
            <Cadence>71</Cadence>
            <DistanceMeters>108.00779</DistanceMeters>
            <Extensions>
              <TPX xmlns="http://www.garmin.com/xmlschemas/ActivityExtension/v2">
                <Watts>74</Watts>
              </TPX>
            </Extensions>
          </Trackpoint>
          <Trackpoint>
            <Time>2010-10-19T20:57:05Z</Time>
            <AltitudeMeters>0.0</AltitudeMeters>
            <HeartRateBpm>
              <Value>93</Value>
            </HeartRateBpm>
            <Cadence>72</Cadence>
            <DistanceMeters>113.32375</DistanceMeters>
            <Extensions>
              <TPX xmlns="http://www.garmin.com/xmlschemas/ActivityExtension/v2">
                <Watts>75</Watts>
              </TPX>
            </Extensions>
          </Trackpoint>
          <Trackpoint>
            <Time>2010-10-19T20:57:06Z</Time>
            <AltitudeMeters>0.0</AltitudeMeters>
            <HeartRateBpm>
              <Value>93</Value>
            </HeartRateBpm>
            <Cadence>72</Cadence>
            <DistanceMeters>118.70705</DistanceMeters>
            <Extensions>
              <TPX xmlns="http://www.garmin.com/xmlschemas/ActivityExtension/v2">
                <Watts>74</Watts>
              </TPX>
            </Extensions>
          </Trackpoint>
          <Trackpoint>
            <Time>2010-10-19T20:57:07Z</Time>
            <AltitudeMeters>0.0</AltitudeMeters>
            <HeartRateBpm>
              <Value>93</Value>
            </HeartRateBpm>
            <Cadence>72</Cadence>
            <DistanceMeters>124.15372</DistanceMeters>
            <Extensions>
              <TPX xmlns="http://www.garmin.com/xmlschemas/ActivityExtension/v2">
                <Watts>74</Watts>
              </TPX>
            </Extensions>
          </Trackpoint>
          <Trackpoint>
            <Time>2010-10-19T20:57:08Z</Time>
            <AltitudeMeters>0.0</AltitudeMeters>
            <HeartRateBpm>
              <Value>94</Value>
            </HeartRateBpm>
            <Cadence>72</Cadence>
            <DistanceMeters>129.66003</DistanceMeters>
            <Extensions>
              <TPX xmlns="http://www.garmin.com/xmlschemas/ActivityExtension/v2">
                <Watts>74</Watts>
              </TPX>
            </Extensions>
          </Trackpoint>
          <Trackpoint>
            <Time>2010-10-19T20:57:09Z</Time>
            <AltitudeMeters>0.0</AltitudeMeters>
            <HeartRateBpm>
              <Value>94</Value>
            </HeartRateBpm>
            <Cadence>72</Cadence>
            <DistanceMeters>135.22252</DistanceMeters>
            <Extensions>
              <TPX xmlns="http://www.garmin.com/xmlschemas/ActivityExtension/v2">
                <Watts>74</Watts>
              </TPX>
            </Extensions>
          </Trackpoint>
          <Trackpoint>
            <Time>2010-10-19T20:57:10Z</Time>
            <AltitudeMeters>0.0</AltitudeMeters>
            <HeartRateBpm>
              <Value>94</Value>
            </HeartRateBpm>
            <Cadence>71</Cadence>
            <DistanceMeters>140.84027</DistanceMeters>
            <Extensions>
              <TPX xmlns="http://www.garmin.com/xmlschemas/ActivityExtension/v2">
                <Watts>75</Watts>
              </TPX>
            </Extensions>
          </Trackpoint>
          <Trackpoint>
            <Time>2010-10-19T20:57:11Z</Time>
            <AltitudeMeters>0.0</AltitudeMeters>
            <HeartRateBpm>
              <Value>94</Value>
            </HeartRateBpm>
            <Cadence>70</Cadence>
            <DistanceMeters>146.50544</DistanceMeters>
            <Extensions>
              <TPX xmlns="http://www.garmin.com/xmlschemas/ActivityExtension/v2">
                <Watts>73</Watts>
              </TPX>
            </Extensions>
          </Trackpoint>
          <Trackpoint>
            <Time>2010-10-19T20:57:12Z</Time>
            <AltitudeMeters>0.0</AltitudeMeters>
            <HeartRateBpm>
              <Value>94</Value>
            </HeartRateBpm>
            <Cadence>69</Cadence>
            <DistanceMeters>152.21992</DistanceMeters>
            <Extensions>
              <TPX xmlns="http://www.garmin.com/xmlschemas/ActivityExtension/v2">
                <Watts>75</Watts>
              </TPX>
            </Extensions>
          </Trackpoint>
          <Trackpoint>
            <Time>2010-10-19T20:57:13Z</Time>
            <AltitudeMeters>0.0</AltitudeMeters>
            <HeartRateBpm>
              <Value>94</Value>
            </HeartRateBpm>
            <Cadence>69</Cadence>
            <DistanceMeters>157.98089</DistanceMeters>
            <Extensions>
              <TPX xmlns="http://www.garmin.com/xmlschemas/ActivityExtension/v2">
                <Watts>75</Watts>
              </TPX>
            </Extensions>
          </Trackpoint>
          <Trackpoint>
            <Time>2010-10-19T20:57:14Z</Time>
            <AltitudeMeters>0.0</AltitudeMeters>
            <HeartRateBpm>
              <Value>94</Value>
            </HeartRateBpm>
            <Cadence>70</Cadence>
            <DistanceMeters>163.78569</DistanceMeters>
            <Extensions>
              <TPX xmlns="http://www.garmin.com/xmlschemas/ActivityExtension/v2">
                <Watts>75</Watts>
              </TPX>
            </Extensions>
          </Trackpoint>
          <Trackpoint>
            <Time>2010-10-19T20:57:15Z</Time>
            <AltitudeMeters>0.0</AltitudeMeters>
            <HeartRateBpm>
              <Value>93</Value>
            </HeartRateBpm>
            <Cadence>70</Cadence>
            <DistanceMeters>169.63407</DistanceMeters>
            <Extensions>
              <TPX xmlns="http://www.garmin.com/xmlschemas/ActivityExtension/v2">
                <Watts>76</Watts>
              </TPX>
            </Extensions>
          </Trackpoint>
          <Trackpoint>
            <Time>2010-10-19T20:57:16Z</Time>
            <AltitudeMeters>0.0</AltitudeMeters>
            <HeartRateBpm>
              <Value>93</Value>
            </HeartRateBpm>
            <Cadence>70</Cadence>
            <DistanceMeters>175.52354</DistanceMeters>
            <Extensions>
              <TPX xmlns="http://www.garmin.com/xmlschemas/ActivityExtension/v2">
                <Watts>76</Watts>
              </TPX>
            </Extensions>
          </Trackpoint>
          <Trackpoint>
            <Time>2010-10-19T20:57:17Z</Time>
            <AltitudeMeters>0.0</AltitudeMeters>
            <HeartRateBpm>
              <Value>93</Value>
            </HeartRateBpm>
            <Cadence>72</Cadence>
            <DistanceMeters>181.44954</DistanceMeters>
            <Extensions>
              <TPX xmlns="http://www.garmin.com/xmlschemas/ActivityExtension/v2">
                <Watts>75</Watts>
              </TPX>
            </Extensions>
          </Trackpoint>
          <Trackpoint>
            <Time>2010-10-19T20:57:18Z</Time>
            <AltitudeMeters>0.0</AltitudeMeters>
            <HeartRateBpm>
              <Value>92</Value>
            </HeartRateBpm>
            <Cadence>73</Cadence>
            <DistanceMeters>187.40999</DistanceMeters>
            <Extensions>
              <TPX xmlns="http://www.garmin.com/xmlschemas/ActivityExtension/v2">
                <Watts>75</Watts>
              </TPX>
            </Extensions>
          </Trackpoint>
          <Trackpoint>
            <Time>2010-10-19T20:57:19Z</Time>
            <AltitudeMeters>0.0</AltitudeMeters>
            <HeartRateBpm>
              <Value>93</Value>
            </HeartRateBpm>
            <Cadence>73</Cadence>
            <DistanceMeters>193.40297</DistanceMeters>
            <Extensions>
              <TPX xmlns="http://www.garmin.com/xmlschemas/ActivityExtension/v2">
                <Watts>75</Watts>
              </TPX>
            </Extensions>
          </Trackpoint>
          <Trackpoint>
            <Time>2010-10-19T20:57:20Z</Time>
            <AltitudeMeters>0.0</AltitudeMeters>
            <HeartRateBpm>
              <Value>94</Value>
            </HeartRateBpm>
            <Cadence>73</Cadence>
            <DistanceMeters>199.42445</DistanceMeters>
            <Extensions>
              <TPX xmlns="http://www.garmin.com/xmlschemas/ActivityExtension/v2">
                <Watts>74</Watts>
              </TPX>
            </Extensions>
          </Trackpoint>
          <Trackpoint>
            <Time>2010-10-19T20:57:21Z</Time>
            <AltitudeMeters>0.0</AltitudeMeters>
            <HeartRateBpm>
              <Value>94</Value>
            </HeartRateBpm>
            <Cadence>73</Cadence>
            <DistanceMeters>205.47285</DistanceMeters>
            <Extensions>
              <TPX xmlns="http://www.garmin.com/xmlschemas/ActivityExtension/v2">
                <Watts>74</Watts>
              </TPX>
            </Extensions>
          </Trackpoint>
          <Trackpoint>
            <Time>2010-10-19T20:57:22Z</Time>
            <AltitudeMeters>0.0</AltitudeMeters>
            <HeartRateBpm>
              <Value>94</Value>
            </HeartRateBpm>
            <Cadence>73</Cadence>
            <DistanceMeters>211.54883</DistanceMeters>
            <Extensions>
              <TPX xmlns="http://www.garmin.com/xmlschemas/ActivityExtension/v2">
                <Watts>75</Watts>
              </TPX>
            </Extensions>
          </Trackpoint>
          <Trackpoint>
            <Time>2010-10-19T20:57:23Z</Time>
            <AltitudeMeters>0.0</AltitudeMeters>
            <HeartRateBpm>
              <Value>95</Value>
            </HeartRateBpm>
            <Cadence>73</Cadence>
            <DistanceMeters>217.64870</DistanceMeters>
            <Extensions>
              <TPX xmlns="http://www.garmin.com/xmlschemas/ActivityExtension/v2">
                <Watts>74</Watts>
              </TPX>
            </Extensions>
          </Trackpoint>
          <Trackpoint>
            <Time>2010-10-19T20:57:24Z</Time>
            <AltitudeMeters>0.0</AltitudeMeters>
            <HeartRateBpm>
              <Value>94</Value>
            </HeartRateBpm>
            <Cadence>72</Cadence>
            <DistanceMeters>223.77113</DistanceMeters>
            <Extensions>
              <TPX xmlns="http://www.garmin.com/xmlschemas/ActivityExtension/v2">
                <Watts>74</Watts>
              </TPX>
            </Extensions>
          </Trackpoint>
          <Trackpoint>
            <Time>2010-10-19T20:57:25Z</Time>
            <AltitudeMeters>0.0</AltitudeMeters>
            <HeartRateBpm>
              <Value>94</Value>
            </HeartRateBpm>
            <Cadence>72</Cadence>
            <DistanceMeters>229.91487</DistanceMeters>
            <Extensions>
              <TPX xmlns="http://www.garmin.com/xmlschemas/ActivityExtension/v2">
                <Watts>74</Watts>
              </TPX>
            </Extensions>
          </Trackpoint>
          <Trackpoint>
            <Time>2010-10-19T20:57:26Z</Time>
            <AltitudeMeters>0.0</AltitudeMeters>
            <HeartRateBpm>
              <Value>94</Value>
            </HeartRateBpm>
            <Cadence>73</Cadence>
            <DistanceMeters>236.08087</DistanceMeters>
            <Extensions>
              <TPX xmlns="http://www.garmin.com/xmlschemas/ActivityExtension/v2">
                <Watts>75</Watts>
              </TPX>
            </Extensions>
          </Trackpoint>
          <Trackpoint>
            <Time>2010-10-19T20:57:27Z</Time>
            <AltitudeMeters>0.0</AltitudeMeters>
            <HeartRateBpm>
              <Value>93</Value>
            </HeartRateBpm>
            <Cadence>73</Cadence>
            <DistanceMeters>242.26791</DistanceMeters>
            <Extensions>
              <TPX xmlns="http://www.garmin.com/xmlschemas/ActivityExtension/v2">
                <Watts>75</Watts>
              </TPX>
            </Extensions>
          </Trackpoint>
          <Trackpoint>
            <Time>2010-10-19T20:57:28Z</Time>
            <AltitudeMeters>0.0</AltitudeMeters>
            <HeartRateBpm>
              <Value>92</Value>
            </HeartRateBpm>
            <Cadence>74</Cadence>
            <DistanceMeters>248.47268</DistanceMeters>
            <Extensions>
              <TPX xmlns="http://www.garmin.com/xmlschemas/ActivityExtension/v2">
                <Watts>74</Watts>
              </TPX>
            </Extensions>
          </Trackpoint>
          <Trackpoint>
            <Time>2010-10-19T20:57:29Z</Time>
            <AltitudeMeters>0.0</AltitudeMeters>
            <HeartRateBpm>
              <Value>92</Value>
            </HeartRateBpm>
            <Cadence>73</Cadence>
            <DistanceMeters>254.69422</DistanceMeters>
            <Extensions>
              <TPX xmlns="http://www.garmin.com/xmlschemas/ActivityExtension/v2">
                <Watts>74</Watts>
              </TPX>
            </Extensions>
          </Trackpoint>
          <Trackpoint>
            <Time>2010-10-19T20:57:30Z</Time>
            <AltitudeMeters>0.0</AltitudeMeters>
            <HeartRateBpm>
              <Value>92</Value>
            </HeartRateBpm>
            <Cadence>73</Cadence>
            <DistanceMeters>260.93370</DistanceMeters>
            <Extensions>
              <TPX xmlns="http://www.garmin.com/xmlschemas/ActivityExtension/v2">
                <Watts>75</Watts>
              </TPX>
            </Extensions>
          </Trackpoint>
          <Trackpoint>
            <Time>2010-10-19T20:57:31Z</Time>
            <AltitudeMeters>0.0</AltitudeMeters>
            <HeartRateBpm>
              <Value>92</Value>
            </HeartRateBpm>
            <Cadence>74</Cadence>
            <DistanceMeters>267.19014</DistanceMeters>
            <Extensions>
              <TPX xmlns="http://www.garmin.com/xmlschemas/ActivityExtension/v2">
                <Watts>75</Watts>
              </TPX>
            </Extensions>
          </Trackpoint>
          <Trackpoint>
            <Time>2010-10-19T20:57:32Z</Time>
            <AltitudeMeters>0.0</AltitudeMeters>
            <HeartRateBpm>
              <Value>93</Value>
            </HeartRateBpm>
            <Cadence>75</Cadence>
            <DistanceMeters>273.46050</DistanceMeters>
            <Extensions>
              <TPX xmlns="http://www.garmin.com/xmlschemas/ActivityExtension/v2">
                <Watts>74</Watts>
              </TPX>
            </Extensions>
          </Trackpoint>
          <Trackpoint>
            <Time>2010-10-19T20:57:33Z</Time>
            <AltitudeMeters>0.0</AltitudeMeters>
            <HeartRateBpm>
              <Value>93</Value>
            </HeartRateBpm>
            <Cadence>75</Cadence>
            <DistanceMeters>279.74401</DistanceMeters>
            <Extensions>
              <TPX xmlns="http://www.garmin.com/xmlschemas/ActivityExtension/v2">
                <Watts>74</Watts>
              </TPX>
            </Extensions>
          </Trackpoint>
          <Trackpoint>
            <Time>2010-10-19T20:57:34Z</Time>
            <AltitudeMeters>0.0</AltitudeMeters>
            <HeartRateBpm>
              <Value>93</Value>
            </HeartRateBpm>
            <Cadence>74</Cadence>
            <DistanceMeters>286.03995</DistanceMeters>
            <Extensions>
              <TPX xmlns="http://www.garmin.com/xmlschemas/ActivityExtension/v2">
                <Watts>74</Watts>
              </TPX>
            </Extensions>
          </Trackpoint>
        </Track>
      </Lap>
    </Activity>
  </Activities>
</TrainingCenterDatabase>
