<?xml version='1.0' encoding='utf-8'?>
<TrainingCenterDatabase xmlns:ns2="http://www.garmin.com/xmlschemas/UserProfile/v2" xmlns:ns3="http://www.garmin.com/xmlschemas/ActivityExtension/v2" xmlns:ns5="http://www.garmin.com/xmlschemas/ActivityGoals/v1" xmlns:xsi="http://www.w3.org/2001/XMLSchema-instance" xmlns="http://www.garmin.com/xmlschemas/TrainingCenterDatabase/v2" xsi:schemaLocation="http://www.garmin.com/xmlschemas/TrainingCenterDatabase/v2 http://www.garmin.com/xmlschemas/TrainingCenterDatabasev2.xsd">
  <Activities>
    <Activity Sport="Biking">
      <Id>2010-10-19T20:56:35Z</Id>
      <Lap StartTime="2010-10-19T20:56:35Z">
        <TotalTimeSeconds>1950</TotalTimeSeconds>
        <DistanceMeters>10089.80000</DistanceMeters>
        <MaximumSpeed>0</MaximumSpeed>
        <Calories>0</Calories>
        <AverageHeartRateBpm>
          <Value>0</Value>
        </AverageHeartRateBpm>
        <MaximumHeartRateBpm>
          <Value>0</Value>
        </MaximumHeartRateBpm>
        <Intensity>Active</Intensity>
        <Cadence>0</Cadence>
        <TriggerMethod>Manual</TriggerMethod>
        <Track>
          <Trackpoint>
            <Time>2010-10-19T20:56:35Z</Time>
            <AltitudeMeters>4.2</AltitudeMeters>
            <HeartRateBpm>
              <Value>110.0</Value>
            </HeartRateBpm>
            <Cadence>0.0</Cadence>
            <DistanceMeters>9919.40000</DistanceMeters>
            <Extensions>
              <TPX xmlns="http://www.garmin.com/xmlschemas/ActivityExtension/v2">
                <Watts>0</Watts>
              </TPX>
            </Extensions>
          </Trackpoint>
          <Trackpoint>
            <Time>2010-10-19T20:57:25Z</Time>
            <AltitudeMeters>4.2</AltitudeMeters>
            <HeartRateBpm>
              <Value>110.0</Value>
            </HeartRateBpm>
            <Cadence>0.0</Cadence>
            <DistanceMeters>9923.90000</DistanceMeters>
            <Extensions>
              <TPX xmlns="http://www.garmin.com/xmlschemas/ActivityExtension/v2">
                <Watts>0</Watts>
              </TPX>
            </Extensions>
          </Trackpoint>
          <Trackpoint>
            <Time>2010-10-19T20:58:15Z</Time>
            <AltitudeMeters>4.2</AltitudeMeters>
            <HeartRateBpm>
              <Value>110.0</Value>
            </HeartRateBpm>
            <Cadence>0.0</Cadence>
            <DistanceMeters>9928.40000</DistanceMeters>
            <Extensions>
              <TPX xmlns="http://www.garmin.com/xmlschemas/ActivityExtension/v2">
                <Watts>0</Watts>
              </TPX>
            </Extensions>
          </Trackpoint>
          <Trackpoint>
            <Time>2010-10-19T20:59:05Z</Time>
            <AltitudeMeters>4.2</AltitudeMeters>
            <HeartRateBpm>
              <Value>110.0</Value>
            </HeartRateBpm>
            <Cadence>0.0</Cadence>
            <DistanceMeters>9933.00000</DistanceMeters>
            <Extensions>
              <TPX xmlns="http://www.garmin.com/xmlschemas/ActivityExtension/v2">
                <Watts>0</Watts>
              </TPX>
            </Extensions>
          </Trackpoint>
          <Trackpoint>
            <Time>2010-10-19T20:59:55Z</Time>
            <AltitudeMeters>4.2</AltitudeMeters>
            <HeartRateBpm>
              <Value>110.0</Value>
            </HeartRateBpm>
            <Cadence>0.0</Cadence>
            <DistanceMeters>9937.50000</DistanceMeters>
            <Extensions>
              <TPX xmlns="http://www.garmin.com/xmlschemas/ActivityExtension/v2">
                <Watts>0</Watts>
              </TPX>
            </Extensions>
          </Trackpoint>
          <Trackpoint>
            <Time>2010-10-19T21:00:45Z</Time>
            <AltitudeMeters>4.2</AltitudeMeters>
            <HeartRateBpm>
              <Value>110.0</Value>
            </HeartRateBpm>
            <Cadence>0.0</Cadence>
            <DistanceMeters>9942.10000</DistanceMeters>
            <Extensions>
              <TPX xmlns="http://www.garmin.com/xmlschemas/ActivityExtension/v2">
                <Watts>0</Watts>
              </TPX>
            </Extensions>
          </Trackpoint>
          <Trackpoint>
            <Time>2010-10-19T21:01:35Z</Time>
            <AltitudeMeters>4.2</AltitudeMeters>
            <HeartRateBpm>
              <Value>111.0</Value>
            </HeartRateBpm>
            <Cadence>0.0</Cadence>
            <DistanceMeters>9947.60000</DistanceMeters>
            <Extensions>
              <TPX xmlns="http://www.garmin.com/xmlschemas/ActivityExtension/v2">
                <Watts>0</Watts>
              </TPX>
            </Extensions>
          </Trackpoint>
          <Trackpoint>
            <Time>2010-10-19T21:02:25Z</Time>
            <AltitudeMeters>4.2</AltitudeMeters>
            <HeartRateBpm>
              <Value>111.0</Value>
            </HeartRateBpm>
            <Cadence>0.0</Cadence>
            <DistanceMeters>9952.10000</DistanceMeters>
            <Extensions>
              <TPX xmlns="http://www.garmin.com/xmlschemas/ActivityExtension/v2">
                <Watts>0</Watts>
              </TPX>
            </Extensions>
          </Trackpoint>
          <Trackpoint>
            <Time>2010-10-19T21:03:15Z</Time>
            <AltitudeMeters>4.2</AltitudeMeters>
            <HeartRateBpm>
              <Value>111.0</Value>
            </HeartRateBpm>
            <Cadence>0.0</Cadence>
            <DistanceMeters>9956.60000</DistanceMeters>
            <Extensions>
              <TPX xmlns="http://www.garmin.com/xmlschemas/ActivityExtension/v2">
                <Watts>0</Watts>
              </TPX>
            </Extensions>
          </Trackpoint>
          <Trackpoint>
            <Time>2010-10-19T21:04:05Z</Time>
            <AltitudeMeters>4.0</AltitudeMeters>
            <HeartRateBpm>
              <Value>111.0</Value>
            </HeartRateBpm>
            <Cadence>0.0</Cadence>
            <DistanceMeters>9961.10000</DistanceMeters>
            <Extensions>
              <TPX xmlns="http://www.garmin.com/xmlschemas/ActivityExtension/v2">
                <Watts>0</Watts>
              </TPX>
            </Extensions>
          </Trackpoint>
          <Trackpoint>
            <Time>2010-10-19T21:04:55Z</Time>
            <AltitudeMeters>4.2</AltitudeMeters>
            <HeartRateBpm>
              <Value>111.0</Value>
            </HeartRateBpm>
            <Cadence>0.0</Cadence>
            <DistanceMeters>9966.80000</DistanceMeters>
            <Extensions>
              <TPX xmlns="http://www.garmin.com/xmlschemas/ActivityExtension/v2">
                <Watts>0</Watts>
              </TPX>
            </Extensions>
          </Trackpoint>
          <Trackpoint>
            <Time>2010-10-19T21:05:45Z</Time>
            <AltitudeMeters>4.2</AltitudeMeters>
            <HeartRateBpm>
              <Value>111.0</Value>
            </HeartRateBpm>
            <Cadence>0.0</Cadence>
            <DistanceMeters>9970.40000</DistanceMeters>
            <Extensions>
              <TPX xmlns="http://www.garmin.com/xmlschemas/ActivityExtension/v2">
                <Watts>0</Watts>
              </TPX>
            </Extensions>
          </Trackpoint>
          <Trackpoint>
            <Time>2010-10-19T21:06:35Z</Time>
            <AltitudeMeters>4.2</AltitudeMeters>
            <HeartRateBpm>
              <Value>110.0</Value>
            </HeartRateBpm>
            <Cadence>0.0</Cadence>
            <DistanceMeters>9974.70000</DistanceMeters>
            <Extensions>
              <TPX xmlns="http://www.garmin.com/xmlschemas/ActivityExtension/v2">
                <Watts>0</Watts>
              </TPX>
            </Extensions>
          </Trackpoint>
          <Trackpoint>
            <Time>2010-10-19T21:07:25Z</Time>
            <AltitudeMeters>4.2</AltitudeMeters>
            <HeartRateBpm>
              <Value>110.0</Value>
            </HeartRateBpm>
            <Cadence>0.0</Cadence>
            <DistanceMeters>9979.20000</DistanceMeters>
            <Extensions>
              <TPX xmlns="http://www.garmin.com/xmlschemas/ActivityExtension/v2">
                <Watts>0</Watts>
              </TPX>
            </Extensions>
          </Trackpoint>
          <Trackpoint>
            <Time>2010-10-19T21:08:15Z</Time>
            <AltitudeMeters>4.2</AltitudeMeters>
            <HeartRateBpm>
              <Value>110.0</Value>
            </HeartRateBpm>
            <Cadence>0.0</Cadence>
            <DistanceMeters>9982.60000</DistanceMeters>
            <Extensions>
              <TPX xmlns="http://www.garmin.com/xmlschemas/ActivityExtension/v2">
                <Watts>0</Watts>
              </TPX>
            </Extensions>
          </Trackpoint>
          <Trackpoint>
            <Time>2010-10-19T21:09:05Z</Time>
            <AltitudeMeters>4.2</AltitudeMeters>
            <HeartRateBpm>
              <Value>110.0</Value>
            </HeartRateBpm>
            <Cadence>0.0</Cadence>
            <DistanceMeters>9987.10000</DistanceMeters>
            <Extensions>
              <TPX xmlns="http://www.garmin.com/xmlschemas/ActivityExtension/v2">
                <Watts>0</Watts>
              </TPX>
            </Extensions>
          </Trackpoint>
          <Trackpoint>
            <Time>2010-10-19T21:09:55Z</Time>
            <AltitudeMeters>4.2</AltitudeMeters>
            <HeartRateBpm>
              <Value>110.0</Value>
            </HeartRateBpm>
            <Cadence>0.0</Cadence>
            <DistanceMeters>9991.60000</DistanceMeters>
            <Extensions>
              <TPX xmlns="http://www.garmin.com/xmlschemas/ActivityExtension/v2">
                <Watts>0</Watts>
              </TPX>
            </Extensions>
          </Trackpoint>
          <Trackpoint>
            <Time>2010-10-19T21:10:45Z</Time>
            <AltitudeMeters>4.2</AltitudeMeters>
            <HeartRateBpm>
              <Value>110.0</Value>
            </HeartRateBpm>
            <Cadence>0.0</Cadence>
            <DistanceMeters>9996.10000</DistanceMeters>
            <Extensions>
              <TPX xmlns="http://www.garmin.com/xmlschemas/ActivityExtension/v2">
                <Watts>0</Watts>
              </TPX>
            </Extensions>
          </Trackpoint>
          <Trackpoint>
            <Time>2010-10-19T21:11:35Z</Time>
            <AltitudeMeters>4.2</AltitudeMeters>
            <HeartRateBpm>
              <Value>110.0</Value>
            </HeartRateBpm>
            <Cadence>0.0</Cadence>
            <DistanceMeters>10000.60000</DistanceMeters>
            <Extensions>
              <TPX xmlns="http://www.garmin.com/xmlschemas/ActivityExtension/v2">
                <Watts>0</Watts>
              </TPX>
            </Extensions>
          </Trackpoint>
          <Trackpoint>
            <Time>2010-10-19T21:12:25Z</Time>
            <AltitudeMeters>4.2</AltitudeMeters>
            <HeartRateBpm>
              <Value>111.0</Value>
            </HeartRateBpm>
            <Cadence>0.0</Cadence>
            <DistanceMeters>10005.10000</DistanceMeters>
            <Extensions>
              <TPX xmlns="http://www.garmin.com/xmlschemas/ActivityExtension/v2">
                <Watts>0</Watts>
              </TPX>
            </Extensions>
          </Trackpoint>
          <Trackpoint>
            <Time>2010-10-19T21:13:15Z</Time>
            <AltitudeMeters>4.2</AltitudeMeters>
            <HeartRateBpm>
              <Value>111.0</Value>
            </HeartRateBpm>
            <Cadence>0.0</Cadence>
            <DistanceMeters>10008.60000</DistanceMeters>
            <Extensions>
              <TPX xmlns="http://www.garmin.com/xmlschemas/ActivityExtension/v2">
                <Watts>0</Watts>
              </TPX>
            </Extensions>
          </Trackpoint>
          <Trackpoint>
            <Time>2010-10-19T21:14:05Z</Time>
            <AltitudeMeters>4.2</AltitudeMeters>
            <HeartRateBpm>
              <Value>111.0</Value>
            </HeartRateBpm>
            <Cadence>0.0</Cadence>
            <DistanceMeters>10014.10000</DistanceMeters>
            <Extensions>
              <TPX xmlns="http://www.garmin.com/xmlschemas/ActivityExtension/v2">
                <Watts>0</Watts>
              </TPX>
            </Extensions>
          </Trackpoint>
          <Trackpoint>
            <Time>2010-10-19T21:14:55Z</Time>
            <AltitudeMeters>4.2</AltitudeMeters>
            <HeartRateBpm>
              <Value>111.0</Value>
            </HeartRateBpm>
            <Cadence>0.0</Cadence>
            <DistanceMeters>10018.70000</DistanceMeters>
            <Extensions>
              <TPX xmlns="http://www.garmin.com/xmlschemas/ActivityExtension/v2">
                <Watts>0</Watts>
              </TPX>
            </Extensions>
          </Trackpoint>
          <Trackpoint>
            <Time>2010-10-19T21:15:45Z</Time>
            <AltitudeMeters>4.2</AltitudeMeters>
            <HeartRateBpm>
              <Value>111.0</Value>
            </HeartRateBpm>
            <Cadence>0.0</Cadence>
            <DistanceMeters>10023.20000</DistanceMeters>
            <Extensions>
              <TPX xmlns="http://www.garmin.com/xmlschemas/ActivityExtension/v2">
                <Watts>0</Watts>
              </TPX>
            </Extensions>
          </Trackpoint>
          <Trackpoint>
            <Time>2010-10-19T21:16:35Z</Time>
            <AltitudeMeters>4.2</AltitudeMeters>
            <HeartRateBpm>
              <Value>111.0</Value>
            </HeartRateBpm>
            <Cadence>0.0</Cadence>
            <DistanceMeters>10026.60000</DistanceMeters>
            <Extensions>
              <TPX xmlns="http://www.garmin.com/xmlschemas/ActivityExtension/v2">
                <Watts>0</Watts>
              </TPX>
            </Extensions>
          </Trackpoint>
          <Trackpoint>
            <Time>2010-10-19T21:17:25Z</Time>
            <AltitudeMeters>4.2</AltitudeMeters>
            <HeartRateBpm>
              <Value>111.0</Value>
            </HeartRateBpm>
            <Cadence>0.0</Cadence>
            <DistanceMeters>10031.10000</DistanceMeters>
            <Extensions>
              <TPX xmlns="http://www.garmin.com/xmlschemas/ActivityExtension/v2">
                <Watts>0</Watts>
              </TPX>
            </Extensions>
          </Trackpoint>
          <Trackpoint>
            <Time>2010-10-19T21:18:15Z</Time>
            <AltitudeMeters>4.2</AltitudeMeters>
            <HeartRateBpm>
              <Value>111.0</Value>
            </HeartRateBpm>
            <Cadence>0.0</Cadence>
            <DistanceMeters>10034.50000</DistanceMeters>
            <Extensions>
              <TPX xmlns="http://www.garmin.com/xmlschemas/ActivityExtension/v2">
                <Watts>0</Watts>
              </TPX>
            </Extensions>
          </Trackpoint>
          <Trackpoint>
            <Time>2010-10-19T21:19:05Z</Time>
            <AltitudeMeters>4.2</AltitudeMeters>
            <HeartRateBpm>
              <Value>111.0</Value>
            </HeartRateBpm>
            <Cadence>0.0</Cadence>
            <DistanceMeters>10038.60000</DistanceMeters>
            <Extensions>
              <TPX xmlns="http://www.garmin.com/xmlschemas/ActivityExtension/v2">
                <Watts>0</Watts>
              </TPX>
            </Extensions>
          </Trackpoint>
          <Trackpoint>
            <Time>2010-10-19T21:19:55Z</Time>
            <AltitudeMeters>4.2</AltitudeMeters>
            <HeartRateBpm>
              <Value>111.0</Value>
            </HeartRateBpm>
            <Cadence>0.0</Cadence>
            <DistanceMeters>10042.40000</DistanceMeters>
            <Extensions>
              <TPX xmlns="http://www.garmin.com/xmlschemas/ActivityExtension/v2">
                <Watts>0</Watts>
              </TPX>
            </Extensions>
          </Trackpoint>
          <Trackpoint>
            <Time>2010-10-19T21:20:45Z</Time>
            <AltitudeMeters>4.2</AltitudeMeters>
            <HeartRateBpm>
              <Value>111.0</Value>
            </HeartRateBpm>
            <Cadence>0.0</Cadence>
            <DistanceMeters>10046.10000</DistanceMeters>
            <Extensions>
              <TPX xmlns="http://www.garmin.com/xmlschemas/ActivityExtension/v2">
                <Watts>0</Watts>
              </TPX>
            </Extensions>
          </Trackpoint>
          <Trackpoint>
            <Time>2010-10-19T21:21:35Z</Time>
            <AltitudeMeters>4.2</AltitudeMeters>
            <HeartRateBpm>
              <Value>111.0</Value>
            </HeartRateBpm>
            <Cadence>0.0</Cadence>
            <DistanceMeters>10050.60000</DistanceMeters>
            <Extensions>
              <TPX xmlns="http://www.garmin.com/xmlschemas/ActivityExtension/v2">
                <Watts>0</Watts>
              </TPX>
            </Extensions>
          </Trackpoint>
          <Trackpoint>
            <Time>2010-10-19T21:22:25Z</Time>
            <AltitudeMeters>4.2</AltitudeMeters>
            <HeartRateBpm>
              <Value>111.0</Value>
            </HeartRateBpm>
            <Cadence>0.0</Cadence>
            <DistanceMeters>10054.80000</DistanceMeters>
            <Extensions>
              <TPX xmlns="http://www.garmin.com/xmlschemas/ActivityExtension/v2">
                <Watts>0</Watts>
              </TPX>
            </Extensions>
          </Trackpoint>
          <Trackpoint>
            <Time>2010-10-19T21:23:15Z</Time>
            <AltitudeMeters>4.4</AltitudeMeters>
            <HeartRateBpm>
              <Value>111.0</Value>
            </HeartRateBpm>
            <Cadence>0.0</Cadence>
            <DistanceMeters>10059.30000</DistanceMeters>
            <Extensions>
              <TPX xmlns="http://www.garmin.com/xmlschemas/ActivityExtension/v2">
                <Watts>0</Watts>
              </TPX>
            </Extensions>
          </Trackpoint>
          <Trackpoint>
            <Time>2010-10-19T21:24:05Z</Time>
            <AltitudeMeters>4.4</AltitudeMeters>
            <HeartRateBpm>
              <Value>111.0</Value>
            </HeartRateBpm>
            <Cadence>0.0</Cadence>
            <DistanceMeters>10063.80000</DistanceMeters>
            <Extensions>
              <TPX xmlns="http://www.garmin.com/xmlschemas/ActivityExtension/v2">
                <Watts>0</Watts>
              </TPX>
            </Extensions>
          </Trackpoint>
          <Trackpoint>
            <Time>2010-10-19T21:24:55Z</Time>
            <AltitudeMeters>4.4</AltitudeMeters>
            <HeartRateBpm>
              <Value>111.0</Value>
            </HeartRateBpm>
            <Cadence>0.0</Cadence>
            <DistanceMeters>10068.30000</DistanceMeters>
            <Extensions>
              <TPX xmlns="http://www.garmin.com/xmlschemas/ActivityExtension/v2">
                <Watts>0</Watts>
              </TPX>
            </Extensions>
          </Trackpoint>
          <Trackpoint>
            <Time>2010-10-19T21:25:45Z</Time>
            <AltitudeMeters>4.4</AltitudeMeters>
            <HeartRateBpm>
              <Value>111.0</Value>
            </HeartRateBpm>
            <Cadence>0.0</Cadence>
            <DistanceMeters>10072.80000</DistanceMeters>
            <Extensions>
              <TPX xmlns="http://www.garmin.com/xmlschemas/ActivityExtension/v2">
                <Watts>0</Watts>
              </TPX>
            </Extensions>
          </Trackpoint>
          <Trackpoint>
            <Time>2010-10-19T21:26:35Z</Time>
            <AltitudeMeters>4.4</AltitudeMeters>
            <HeartRateBpm>
              <Value>111.0</Value>
            </HeartRateBpm>
            <Cadence>0.0</Cadence>
            <DistanceMeters>10077.30000</DistanceMeters>
            <Extensions>
              <TPX xmlns="http://www.garmin.com/xmlschemas/ActivityExtension/v2">
                <Watts>0</Watts>
              </TPX>
            </Extensions>
          </Trackpoint>
          <Trackpoint>
            <Time>2010-10-19T21:27:25Z</Time>
            <AltitudeMeters>4.4</AltitudeMeters>
            <HeartRateBpm>
              <Value>111.0</Value>
            </HeartRateBpm>
            <Cadence>0.0</Cadence>
            <DistanceMeters>10080.70000</DistanceMeters>
            <Extensions>
              <TPX xmlns="http://www.garmin.com/xmlschemas/ActivityExtension/v2">
                <Watts>0</Watts>
              </TPX>
            </Extensions>
          </Trackpoint>
          <Trackpoint>
            <Time>2010-10-19T21:28:15Z</Time>
            <AltitudeMeters>4.4</AltitudeMeters>
            <HeartRateBpm>
              <Value>111.0</Value>
            </HeartRateBpm>
            <Cadence>0.0</Cadence>
            <DistanceMeters>10085.20000</DistanceMeters>
            <Extensions>
              <TPX xmlns="http://www.garmin.com/xmlschemas/ActivityExtension/v2">
                <Watts>0</Watts>
              </TPX>
            </Extensions>
          </Trackpoint>
          <Trackpoint>
            <Time>2010-10-19T21:29:05Z</Time>
            <AltitudeMeters>4.4</AltitudeMeters>
            <HeartRateBpm>
              <Value>111.0</Value>
            </HeartRateBpm>
            <Cadence>0.0</Cadence>
            <DistanceMeters>10089.80000</DistanceMeters>
            <Extensions>
              <TPX xmlns="http://www.garmin.com/xmlschemas/ActivityExtension/v2">
                <Watts>0</Watts>
              </TPX>
            </Extensions>
          </Trackpoint>
        </Track>
      </Lap>
    </Activity>
  </Activities>
</TrainingCenterDatabase>
