<?xml version='1.0' encoding='utf-8'?>
<TrainingCenterDatabase xmlns:ns2="http://www.garmin.com/xmlschemas/UserProfile/v2" xmlns:ns3="http://www.garmin.com/xmlschemas/ActivityExtension/v2" xmlns:ns5="http://www.garmin.com/xmlschemas/ActivityGoals/v1" xmlns:xsi="http://www.w3.org/2001/XMLSchema-instance" xmlns="http://www.garmin.com/xmlschemas/TrainingCenterDatabase/v2" xsi:schemaLocation="http://www.garmin.com/xmlschemas/TrainingCenterDatabase/v2 http://www.garmin.com/xmlschemas/TrainingCenterDatabasev2.xsd">
  <Activities>
    <Activity Sport="Biking">
      <Id>2010-10-19T20:56:35Z</Id>
      <Lap StartTime="2010-10-19T20:56:35Z">
        <TotalTimeSeconds>59</TotalTimeSeconds>
        <DistanceMeters>0.00000</DistanceMeters>
        <MaximumSpeed>0</MaximumSpeed>
        <Calories>0</Calories>
        <AverageHeartRateBpm>
          <Value>0</Value>
        </AverageHeartRateBpm>
        <MaximumHeartRateBpm>
          <Value>0</Value>
        </MaximumHeartRateBpm>
        <Intensity>Active</Intensity>
        <Cadence>0</Cadence>
        <TriggerMethod>Manual</TriggerMethod>
        <Track>
          <Trackpoint>
            <Time>2010-10-19T20:56:35Z</Time>
            <AltitudeMeters>0.0</AltitudeMeters>
            <HeartRateBpm>
              <Value>86</Value>
            </HeartRateBpm>
            <Cadence>67</Cadence>
            <DistanceMeters>0.00000</DistanceMeters>
            <Extensions>
              <TPX xmlns="http://www.garmin.com/xmlschemas/ActivityExtension/v2">
                <Watts>75</Watts>
              </TPX>
            </Extensions>
          </Trackpoint>
          <Trackpoint>
            <Time>2010-10-19T20:56:36Z</Time>
            <AltitudeMeters>0.0</AltitudeMeters>
            <HeartRateBpm>
              <Value>86</Value>
            </HeartRateBpm>
            <Cadence>68</Cadence>
            <DistanceMeters>0.00000</DistanceMeters>
            <Extensions>
              <TPX xmlns="http://www.garmin.com/xmlschemas/ActivityExtension/v2">
                <Watts>75</Watts>
              </TPX>
            </Extensions>
          </Trackpoint>
          <Trackpoint>
            <Time>2010-10-19T20:56:37Z</Time>
            <AltitudeMeters>0.0</AltitudeMeters>
            <HeartRateBpm>
              <Value>86</Value>
            </HeartRateBpm>
            <Cadence>68</Cadence>
            <DistanceMeters>0.00000</DistanceMeters>
            <Extensions>
              <TPX xmlns="http://www.garmin.com/xmlschemas/ActivityExtension/v2">
                <Watts>56</Watts>
              </TPX>
            </Extensions>
          </Trackpoint>
          <Trackpoint>
            <Time>2010-10-19T20:56:38Z</Time>
            <AltitudeMeters>0.0</AltitudeMeters>
            <HeartRateBpm>
              <Value>86</Value>
            </HeartRateBpm>
            <Cadence>68</Cadence>
            <DistanceMeters>0.00000</DistanceMeters>
            <Extensions>
              <TPX xmlns="http://www.garmin.com/xmlschemas/ActivityExtension/v2">
                <Watts>37</Watts>
              </TPX>
            </Extensions>
          </Trackpoint>
          <Trackpoint>
            <Time>2010-10-19T20:56:39Z</Time>
            <AltitudeMeters>0.0</AltitudeMeters>
            <HeartRateBpm>
              <Value>86</Value>
            </HeartRateBpm>
            <Cadence>34</Cadence>
            <DistanceMeters>0.00000</DistanceMeters>
            <Extensions>
              <TPX xmlns="http://www.garmin.com/xmlschemas/ActivityExtension/v2">
                <Watts>37</Watts>
              </TPX>
            </Extensions>
          </Trackpoint>
          <Trackpoint>
            <Time>2010-10-19T20:56:40Z</Time>
            <AltitudeMeters>0.0</AltitudeMeters>
            <HeartRateBpm>
              <Value>86</Value>
            </HeartRateBpm>
            <Cadence>34</Cadence>
            <DistanceMeters>0.00000</DistanceMeters>
            <Extensions>
              <TPX xmlns="http://www.garmin.com/xmlschemas/ActivityExtension/v2">
                <Watts>37</Watts>
              </TPX>
            </Extensions>
          </Trackpoint>
          <Trackpoint>
            <Time>2010-10-19T20:56:41Z</Time>
            <AltitudeMeters>0.0</AltitudeMeters>
            <HeartRateBpm>
              <Value>86</Value>
            </HeartRateBpm>
            <Cadence>34</Cadence>
            <DistanceMeters>0.00000</DistanceMeters>
            <Extensions>
              <TPX xmlns="http://www.garmin.com/xmlschemas/ActivityExtension/v2">
                <Watts>37</Watts>
              </TPX>
            </Extensions>
          </Trackpoint>
          <Trackpoint>
            <Time>2010-10-19T20:56:42Z</Time>
            <AltitudeMeters>0.0</AltitudeMeters>
            <HeartRateBpm>
              <Value>85</Value>
            </HeartRateBpm>
            <Cadence>34</Cadence>
            <DistanceMeters>0.00000</DistanceMeters>
            <Extensions>
              <TPX xmlns="http://www.garmin.com/xmlschemas/ActivityExtension/v2">
                <Watts>47</Watts>
              </TPX>
            </Extensions>
          </Trackpoint>
          <Trackpoint>
            <Time>2010-10-19T20:56:43Z</Time>
            <AltitudeMeters>0.0</AltitudeMeters>
            <HeartRateBpm>
              <Value>85</Value>
            </HeartRateBpm>
            <Cadence>0</Cadence>
            <DistanceMeters>0.00000</DistanceMeters>
            <Extensions>
              <TPX xmlns="http://www.garmin.com/xmlschemas/ActivityExtension/v2">
                <Watts>33</Watts>
              </TPX>
            </Extensions>
          </Trackpoint>
          <Trackpoint>
            <Time>2010-10-19T20:56:44Z</Time>
            <AltitudeMeters>0.0</AltitudeMeters>
            <HeartRateBpm>
              <Value>85</Value>
            </HeartRateBpm>
            <Cadence>0</Cadence>
            <DistanceMeters>0.00000</DistanceMeters>
            <Extensions>
              <TPX xmlns="http://www.garmin.com/xmlschemas/ActivityExtension/v2">
                <Watts>33</Watts>
              </TPX>
            </Extensions>
          </Trackpoint>
          <Trackpoint>
            <Time>2010-10-19T20:56:45Z</Time>
            <AltitudeMeters>0.0</AltitudeMeters>
            <HeartRateBpm>
              <Value>85</Value>
            </HeartRateBpm>
            <Cadence>0</Cadence>
            <DistanceMeters>0.00000</DistanceMeters>
            <Extensions>
              <TPX xmlns="http://www.garmin.com/xmlschemas/ActivityExtension/v2">
                <Watts>11</Watts>
              </TPX>
            </Extensions>
          </Trackpoint>
          <Trackpoint>
            <Time>2010-10-19T20:56:46Z</Time>
            <AltitudeMeters>0.0</AltitudeMeters>
            <HeartRateBpm>
              <Value>86</Value>
            </HeartRateBpm>
            <Cadence>0</Cadence>
            <DistanceMeters>0.00000</DistanceMeters>
            <Extensions>
              <TPX xmlns="http://www.garmin.com/xmlschemas/ActivityExtension/v2">
                <Watts>11</Watts>
              </TPX>
            </Extensions>
          </Trackpoint>
          <Trackpoint>
            <Time>2010-10-19T20:56:47Z</Time>
            <AltitudeMeters>0.0</AltitudeMeters>
            <HeartRateBpm>
              <Value>86</Value>
            </HeartRateBpm>
            <Cadence>0</Cadence>
            <DistanceMeters>0.00000</DistanceMeters>
            <Extensions>
              <TPX xmlns="http://www.garmin.com/xmlschemas/ActivityExtension/v2">
                <Watts>10</Watts>
              </TPX>
            </Extensions>
          </Trackpoint>
          <Trackpoint>
            <Time>2010-10-19T20:56:48Z</Time>
            <AltitudeMeters>0.0</AltitudeMeters>
            <HeartRateBpm>
              <Value>95</Value>
            </HeartRateBpm>
            <Cadence>53</Cadence>
            <DistanceMeters>0.00000</DistanceMeters>
            <Extensions>
              <TPX xmlns="http://www.garmin.com/xmlschemas/ActivityExtension/v2">
                <Watts>43</Watts>
              </TPX>
            </Extensions>
          </Trackpoint>
          <Trackpoint>
            <Time>2010-10-19T20:56:49Z</Time>
            <AltitudeMeters>0.0</AltitudeMeters>
            <HeartRateBpm>
              <Value>95</Value>
            </HeartRateBpm>
            <Cadence>69</Cadence>
            <DistanceMeters>0.00000</DistanceMeters>
            <Extensions>
              <TPX xmlns="http://www.garmin.com/xmlschemas/ActivityExtension/v2">
                <Watts>57</Watts>
              </TPX>
            </Extensions>
          </Trackpoint>
          <Trackpoint>
            <Time>2010-10-19T20:56:50Z</Time>
            <AltitudeMeters>0.0</AltitudeMeters>
            <HeartRateBpm>
              <Value>95</Value>
            </HeartRateBpm>
            <Cadence>68</Cadence>
            <DistanceMeters>0.00000</DistanceMeters>
            <Extensions>
              <TPX xmlns="http://www.garmin.com/xmlschemas/ActivityExtension/v2">
                <Watts>67</Watts>
              </TPX>
            </Extensions>
          </Trackpoint>
          <Trackpoint>
            <Time>2010-10-19T20:56:51Z</Time>
            <AltitudeMeters>0.0</AltitudeMeters>
            <HeartRateBpm>
              <Value>96</Value>
            </HeartRateBpm>
            <Cadence>70</Cadence>
            <DistanceMeters>0.00000</DistanceMeters>
            <Extensions>
              <TPX xmlns="http://www.garmin.com/xmlschemas/ActivityExtension/v2">
                <Watts>73</Watts>
              </TPX>
            </Extensions>
          </Trackpoint>
          <Trackpoint>
            <Time>2010-10-19T20:56:52Z</Time>
            <AltitudeMeters>0.0</AltitudeMeters>
            <HeartRateBpm>
              <Value>96</Value>
            </HeartRateBpm>
            <Cadence>71</Cadence>
            <DistanceMeters>0.00000</DistanceMeters>
            <Extensions>
              <TPX xmlns="http://www.garmin.com/xmlschemas/ActivityExtension/v2">
                <Watts>75</Watts>
              </TPX>
            </Extensions>
          </Trackpoint>
          <Trackpoint>
            <Time>2010-10-19T20:56:53Z</Time>
            <AltitudeMeters>0.0</AltitudeMeters>
            <HeartRateBpm>
              <Value>97</Value>
            </HeartRateBpm>
            <Cadence>71</Cadence>
            <DistanceMeters>0.00000</DistanceMeters>
            <Extensions>
              <TPX xmlns="http://www.garmin.com/xmlschemas/ActivityExtension/v2">
                <Watts>74</Watts>
              </TPX>
            </Extensions>
          </Trackpoint>
          <Trackpoint>
            <Time>2010-10-19T20:56:54Z</Time>
            <AltitudeMeters>0.0</AltitudeMeters>
            <HeartRateBpm>
              <Value>98</Value>
            </HeartRateBpm>
            <Cadence>71</Cadence>
            <DistanceMeters>0.00000</DistanceMeters>
            <Extensions>
              <TPX xmlns="http://www.garmin.com/xmlschemas/ActivityExtension/v2">
                <Watts>74</Watts>
              </TPX>
            </Extensions>
          </Trackpoint>
          <Trackpoint>
            <Time>2010-10-19T20:56:55Z</Time>
            <AltitudeMeters>0.0</AltitudeMeters>
            <HeartRateBpm>
              <Value>98</Value>
            </HeartRateBpm>
            <Cadence>71</Cadence>
            <DistanceMeters>0.00000</DistanceMeters>
            <Extensions>
              <TPX xmlns="http://www.garmin.com/xmlschemas/ActivityExtension/v2">
                <Watts>75</Watts>
              </TPX>
            </Extensions>
          </Trackpoint>
          <Trackpoint>
            <Time>2010-10-19T20:56:56Z</Time>
            <AltitudeMeters>0.0</AltitudeMeters>
            <HeartRateBpm>
              <Value>98</Value>
            </HeartRateBpm>
            <Cadence>71</Cadence>
            <DistanceMeters>0.00000</DistanceMeters>
            <Extensions>
              <TPX xmlns="http://www.garmin.com/xmlschemas/ActivityExtension/v2">
                <Watts>74</Watts>
              </TPX>
            </Extensions>
          </Trackpoint>
          <Trackpoint>
            <Time>2010-10-19T20:56:57Z</Time>
            <AltitudeMeters>0.0</AltitudeMeters>
            <HeartRateBpm>
              <Value>97</Value>
            </HeartRateBpm>
            <Cadence>71</Cadence>
            <DistanceMeters>0.00000</DistanceMeters>
            <Extensions>
              <TPX xmlns="http://www.garmin.com/xmlschemas/ActivityExtension/v2">
                <Watts>74</Watts>
              </TPX>
            </Extensions>
          </Trackpoint>
          <Trackpoint>
            <Time>2010-10-19T20:56:58Z</Time>
            <AltitudeMeters>0.0</AltitudeMeters>
            <HeartRateBpm>
              <Value>97</Value>
            </HeartRateBpm>
            <Cadence>70</Cadence>
            <DistanceMeters>0.00000</DistanceMeters>
            <Extensions>
              <TPX xmlns="http://www.garmin.com/xmlschemas/ActivityExtension/v2">
                <Watts>74</Watts>
              </TPX>
            </Extensions>
          </Trackpoint>
          <Trackpoint>
            <Time>2010-10-19T20:56:59Z</Time>
            <AltitudeMeters>0.0</AltitudeMeters>
            <HeartRateBpm>
              <Value>96</Value>
            </HeartRateBpm>
            <Cadence>71</Cadence>
            <DistanceMeters>0.00000</DistanceMeters>
            <Extensions>
              <TPX xmlns="http://www.garmin.com/xmlschemas/ActivityExtension/v2">
                <Watts>74</Watts>
              </TPX>
            </Extensions>
          </Trackpoint>
          <Trackpoint>
            <Time>2010-10-19T20:57:00Z</Time>
            <AltitudeMeters>0.0</AltitudeMeters>
            <HeartRateBpm>
              <Value>95</Value>
            </HeartRateBpm>
            <Cadence>70</Cadence>
            <DistanceMeters>0.00000</DistanceMeters>
            <Extensions>
              <TPX xmlns="http://www.garmin.com/xmlschemas/ActivityExtension/v2">
                <Watts>74</Watts>
              </TPX>
            </Extensions>
          </Trackpoint>
          <Trackpoint>
            <Time>2010-10-19T20:57:01Z</Time>
            <AltitudeMeters>0.0</AltitudeMeters>
            <HeartRateBpm>
              <Value>95</Value>
            </HeartRateBpm>
            <Cadence>70</Cadence>
            <DistanceMeters>0.00000</DistanceMeters>
            <Extensions>
              <TPX xmlns="http://www.garmin.com/xmlschemas/ActivityExtension/v2">
                <Watts>74</Watts>
              </TPX>
            </Extensions>
          </Trackpoint>
          <Trackpoint>
            <Time>2010-10-19T20:57:02Z</Time>
            <AltitudeMeters>0.0</AltitudeMeters>
            <HeartRateBpm>
              <Value>94</Value>
            </HeartRateBpm>
            <Cadence>69</Cadence>
            <DistanceMeters>0.00000</DistanceMeters>
            <Extensions>
              <TPX xmlns="http://www.garmin.com/xmlschemas/ActivityExtension/v2">
                <Watts>75</Watts>
              </TPX>
            </Extensions>
          </Trackpoint>
          <Trackpoint>
            <Time>2010-10-19T20:57:03Z</Time>
            <AltitudeMeters>0.0</AltitudeMeters>
            <HeartRateBpm>
              <Value>94</Value>
            </HeartRateBpm>
            <Cadence>70</Cadence>
            <DistanceMeters>0.00000</DistanceMeters>
            <Extensions>
              <TPX xmlns="http://www.garmin.com/xmlschemas/ActivityExtension/v2">
                <Watts>76</Watts>
              </TPX>
            </Extensions>
          </Trackpoint>
          <Trackpoint>
            <Time>2010-10-19T20:57:04Z</Time>
            <AltitudeMeters>0.0</AltitudeMeters>
            <HeartRateBpm>
              <Value>94</Value>
            </HeartRateBpm>
            <Cadence>71</Cadence>
            <DistanceMeters>0.00000</DistanceMeters>
            <Extensions>
              <TPX xmlns="http://www.garmin.com/xmlschemas/ActivityExtension/v2">
                <Watts>74</Watts>
              </TPX>
            </Extensions>
          </Trackpoint>
          <Trackpoint>
            <Time>2010-10-19T20:57:05Z</Time>
            <AltitudeMeters>0.0</AltitudeMeters>
            <HeartRateBpm>
              <Value>93</Value>
            </HeartRateBpm>
            <Cadence>72</Cadence>
            <DistanceMeters>0.00000</DistanceMeters>
            <Extensions>
              <TPX xmlns="http://www.garmin.com/xmlschemas/ActivityExtension/v2">
                <Watts>75</Watts>
              </TPX>
            </Extensions>
          </Trackpoint>
          <Trackpoint>
            <Time>2010-10-19T20:57:06Z</Time>
            <AltitudeMeters>0.0</AltitudeMeters>
            <HeartRateBpm>
              <Value>93</Value>
            </HeartRateBpm>
            <Cadence>72</Cadence>
            <DistanceMeters>0.00000</DistanceMeters>
            <Extensions>
              <TPX xmlns="http://www.garmin.com/xmlschemas/ActivityExtension/v2">
                <Watts>74</Watts>
              </TPX>
            </Extensions>
          </Trackpoint>
          <Trackpoint>
            <Time>2010-10-19T20:57:07Z</Time>
            <AltitudeMeters>0.0</AltitudeMeters>
            <HeartRateBpm>
              <Value>93</Value>
            </HeartRateBpm>
            <Cadence>72</Cadence>
            <DistanceMeters>0.00000</DistanceMeters>
            <Extensions>
              <TPX xmlns="http://www.garmin.com/xmlschemas/ActivityExtension/v2">
                <Watts>74</Watts>
              </TPX>
            </Extensions>
          </Trackpoint>
          <Trackpoint>
            <Time>2010-10-19T20:57:08Z</Time>
            <AltitudeMeters>0.0</AltitudeMeters>
            <HeartRateBpm>
              <Value>94</Value>
            </HeartRateBpm>
            <Cadence>72</Cadence>
            <DistanceMeters>0.00000</DistanceMeters>
            <Extensions>
              <TPX xmlns="http://www.garmin.com/xmlschemas/ActivityExtension/v2">
                <Watts>74</Watts>
              </TPX>
            </Extensions>
          </Trackpoint>
          <Trackpoint>
            <Time>2010-10-19T20:57:09Z</Time>
            <AltitudeMeters>0.0</AltitudeMeters>
            <HeartRateBpm>
              <Value>94</Value>
            </HeartRateBpm>
            <Cadence>72</Cadence>
            <DistanceMeters>0.00000</DistanceMeters>
            <Extensions>
              <TPX xmlns="http://www.garmin.com/xmlschemas/ActivityExtension/v2">
                <Watts>74</Watts>
              </TPX>
            </Extensions>
          </Trackpoint>
          <Trackpoint>
            <Time>2010-10-19T20:57:10Z</Time>
            <AltitudeMeters>0.0</AltitudeMeters>
            <HeartRateBpm>
              <Value>94</Value>
            </HeartRateBpm>
            <Cadence>71</Cadence>
            <DistanceMeters>0.00000</DistanceMeters>
            <Extensions>
              <TPX xmlns="http://www.garmin.com/xmlschemas/ActivityExtension/v2">
                <Watts>75</Watts>
              </TPX>
            </Extensions>
          </Trackpoint>
          <Trackpoint>
            <Time>2010-10-19T20:57:11Z</Time>
            <AltitudeMeters>0.0</AltitudeMeters>
            <HeartRateBpm>
              <Value>94</Value>
            </HeartRateBpm>
            <Cadence>70</Cadence>
            <DistanceMeters>0.00000</DistanceMeters>
            <Extensions>
              <TPX xmlns="http://www.garmin.com/xmlschemas/ActivityExtension/v2">
                <Watts>73</Watts>
              </TPX>
            </Extensions>
          </Trackpoint>
          <Trackpoint>
            <Time>2010-10-19T20:57:12Z</Time>
            <AltitudeMeters>0.0</AltitudeMeters>
            <HeartRateBpm>
              <Value>94</Value>
            </HeartRateBpm>
            <Cadence>69</Cadence>
            <DistanceMeters>0.00000</DistanceMeters>
            <Extensions>
              <TPX xmlns="http://www.garmin.com/xmlschemas/ActivityExtension/v2">
                <Watts>75</Watts>
              </TPX>
            </Extensions>
          </Trackpoint>
          <Trackpoint>
            <Time>2010-10-19T20:57:13Z</Time>
            <AltitudeMeters>0.0</AltitudeMeters>
            <HeartRateBpm>
              <Value>94</Value>
            </HeartRateBpm>
            <Cadence>69</Cadence>
            <DistanceMeters>0.00000</DistanceMeters>
            <Extensions>
              <TPX xmlns="http://www.garmin.com/xmlschemas/ActivityExtension/v2">
                <Watts>75</Watts>
              </TPX>
            </Extensions>
          </Trackpoint>
          <Trackpoint>
            <Time>2010-10-19T20:57:14Z</Time>
            <AltitudeMeters>0.0</AltitudeMeters>
            <HeartRateBpm>
              <Value>94</Value>
            </HeartRateBpm>
            <Cadence>70</Cadence>
            <DistanceMeters>0.00000</DistanceMeters>
            <Extensions>
              <TPX xmlns="http://www.garmin.com/xmlschemas/ActivityExtension/v2">
                <Watts>75</Watts>
              </TPX>
            </Extensions>
          </Trackpoint>
          <Trackpoint>
            <Time>2010-10-19T20:57:15Z</Time>
            <AltitudeMeters>0.0</AltitudeMeters>
            <HeartRateBpm>
              <Value>93</Value>
            </HeartRateBpm>
            <Cadence>70</Cadence>
            <DistanceMeters>0.00000</DistanceMeters>
            <Extensions>
              <TPX xmlns="http://www.garmin.com/xmlschemas/ActivityExtension/v2">
                <Watts>76</Watts>
              </TPX>
            </Extensions>
          </Trackpoint>
          <Trackpoint>
            <Time>2010-10-19T20:57:16Z</Time>
            <AltitudeMeters>0.0</AltitudeMeters>
            <HeartRateBpm>
              <Value>93</Value>
            </HeartRateBpm>
            <Cadence>70</Cadence>
            <DistanceMeters>0.00000</DistanceMeters>
            <Extensions>
              <TPX xmlns="http://www.garmin.com/xmlschemas/ActivityExtension/v2">
                <Watts>76</Watts>
              </TPX>
            </Extensions>
          </Trackpoint>
          <Trackpoint>
            <Time>2010-10-19T20:57:17Z</Time>
            <AltitudeMeters>0.0</AltitudeMeters>
            <HeartRateBpm>
              <Value>93</Value>
            </HeartRateBpm>
            <Cadence>72</Cadence>
            <DistanceMeters>0.00000</DistanceMeters>
            <Extensions>
              <TPX xmlns="http://www.garmin.com/xmlschemas/ActivityExtension/v2">
                <Watts>75</Watts>
              </TPX>
            </Extensions>
          </Trackpoint>
          <Trackpoint>
            <Time>2010-10-19T20:57:18Z</Time>
            <AltitudeMeters>0.0</AltitudeMeters>
            <HeartRateBpm>
              <Value>92</Value>
            </HeartRateBpm>
            <Cadence>73</Cadence>
            <DistanceMeters>0.00000</DistanceMeters>
            <Extensions>
              <TPX xmlns="http://www.garmin.com/xmlschemas/ActivityExtension/v2">
                <Watts>75</Watts>
              </TPX>
            </Extensions>
          </Trackpoint>
          <Trackpoint>
            <Time>2010-10-19T20:57:19Z</Time>
            <AltitudeMeters>0.0</AltitudeMeters>
            <HeartRateBpm>
              <Value>93</Value>
            </HeartRateBpm>
            <Cadence>73</Cadence>
            <DistanceMeters>0.00000</DistanceMeters>
            <Extensions>
              <TPX xmlns="http://www.garmin.com/xmlschemas/ActivityExtension/v2">
                <Watts>75</Watts>
              </TPX>
            </Extensions>
          </Trackpoint>
          <Trackpoint>
            <Time>2010-10-19T20:57:20Z</Time>
            <AltitudeMeters>0.0</AltitudeMeters>
            <HeartRateBpm>
              <Value>94</Value>
            </HeartRateBpm>
            <Cadence>73</Cadence>
            <DistanceMeters>0.00000</DistanceMeters>
            <Extensions>
              <TPX xmlns="http://www.garmin.com/xmlschemas/ActivityExtension/v2">
                <Watts>74</Watts>
              </TPX>
            </Extensions>
          </Trackpoint>
          <Trackpoint>
            <Time>2010-10-19T20:57:21Z</Time>
            <AltitudeMeters>0.0</AltitudeMeters>
            <HeartRateBpm>
              <Value>94</Value>
            </HeartRateBpm>
            <Cadence>73</Cadence>
            <DistanceMeters>0.00000</DistanceMeters>
            <Extensions>
              <TPX xmlns="http://www.garmin.com/xmlschemas/ActivityExtension/v2">
                <Watts>74</Watts>
              </TPX>
            </Extensions>
          </Trackpoint>
          <Trackpoint>
            <Time>2010-10-19T20:57:22Z</Time>
            <AltitudeMeters>0.0</AltitudeMeters>
            <HeartRateBpm>
              <Value>94</Value>
            </HeartRateBpm>
            <Cadence>73</Cadence>
            <DistanceMeters>0.00000</DistanceMeters>
            <Extensions>
              <TPX xmlns="http://www.garmin.com/xmlschemas/ActivityExtension/v2">
                <Watts>75</Watts>
              </TPX>
            </Extensions>
          </Trackpoint>
          <Trackpoint>
            <Time>2010-10-19T20:57:23Z</Time>
            <AltitudeMeters>0.0</AltitudeMeters>
            <HeartRateBpm>
              <Value>95</Value>
            </HeartRateBpm>
            <Cadence>73</Cadence>
            <DistanceMeters>0.00000</DistanceMeters>
            <Extensions>
              <TPX xmlns="http://www.garmin.com/xmlschemas/ActivityExtension/v2">
                <Watts>74</Watts>
              </TPX>
            </Extensions>
          </Trackpoint>
          <Trackpoint>
            <Time>2010-10-19T20:57:24Z</Time>
            <AltitudeMeters>0.0</AltitudeMeters>
            <HeartRateBpm>
              <Value>94</Value>
            </HeartRateBpm>
            <Cadence>72</Cadence>
            <DistanceMeters>0.00000</DistanceMeters>
            <Extensions>
              <TPX xmlns="http://www.garmin.com/xmlschemas/ActivityExtension/v2">
                <Watts>74</Watts>
              </TPX>
            </Extensions>
          </Trackpoint>
          <Trackpoint>
            <Time>2010-10-19T20:57:25Z</Time>
            <AltitudeMeters>0.0</AltitudeMeters>
            <HeartRateBpm>
              <Value>94</Value>
            </HeartRateBpm>
            <Cadence>72</Cadence>
            <DistanceMeters>0.00000</DistanceMeters>
            <Extensions>
              <TPX xmlns="http://www.garmin.com/xmlschemas/ActivityExtension/v2">
                <Watts>74</Watts>
              </TPX>
            </Extensions>
          </Trackpoint>
          <Trackpoint>
            <Time>2010-10-19T20:57:26Z</Time>
            <AltitudeMeters>0.0</AltitudeMeters>
            <HeartRateBpm>
              <Value>94</Value>
            </HeartRateBpm>
            <Cadence>73</Cadence>
            <DistanceMeters>0.00000</DistanceMeters>
            <Extensions>
              <TPX xmlns="http://www.garmin.com/xmlschemas/ActivityExtension/v2">
                <Watts>75</Watts>
              </TPX>
            </Extensions>
          </Trackpoint>
          <Trackpoint>
            <Time>2010-10-19T20:57:27Z</Time>
            <AltitudeMeters>0.0</AltitudeMeters>
            <HeartRateBpm>
              <Value>93</Value>
            </HeartRateBpm>
            <Cadence>73</Cadence>
            <DistanceMeters>0.00000</DistanceMeters>
            <Extensions>
              <TPX xmlns="http://www.garmin.com/xmlschemas/ActivityExtension/v2">
                <Watts>75</Watts>
              </TPX>
            </Extensions>
          </Trackpoint>
          <Trackpoint>
            <Time>2010-10-19T20:57:28Z</Time>
            <AltitudeMeters>0.0</AltitudeMeters>
            <HeartRateBpm>
              <Value>92</Value>
            </HeartRateBpm>
            <Cadence>74</Cadence>
            <DistanceMeters>0.00000</DistanceMeters>
            <Extensions>
              <TPX xmlns="http://www.garmin.com/xmlschemas/ActivityExtension/v2">
                <Watts>74</Watts>
              </TPX>
            </Extensions>
          </Trackpoint>
          <Trackpoint>
            <Time>2010-10-19T20:57:29Z</Time>
            <AltitudeMeters>0.0</AltitudeMeters>
            <HeartRateBpm>
              <Value>92</Value>
            </HeartRateBpm>
            <Cadence>73</Cadence>
            <DistanceMeters>0.00000</DistanceMeters>
            <Extensions>
              <TPX xmlns="http://www.garmin.com/xmlschemas/ActivityExtension/v2">
                <Watts>74</Watts>
              </TPX>
            </Extensions>
          </Trackpoint>
          <Trackpoint>
            <Time>2010-10-19T20:57:30Z</Time>
            <AltitudeMeters>0.0</AltitudeMeters>
            <HeartRateBpm>
              <Value>92</Value>
            </HeartRateBpm>
            <Cadence>73</Cadence>
            <DistanceMeters>0.00000</DistanceMeters>
            <Extensions>
              <TPX xmlns="http://www.garmin.com/xmlschemas/ActivityExtension/v2">
                <Watts>75</Watts>
              </TPX>
            </Extensions>
          </Trackpoint>
          <Trackpoint>
            <Time>2010-10-19T20:57:31Z</Time>
            <AltitudeMeters>0.0</AltitudeMeters>
            <HeartRateBpm>
              <Value>92</Value>
            </HeartRateBpm>
            <Cadence>74</Cadence>
            <DistanceMeters>0.00000</DistanceMeters>
            <Extensions>
              <TPX xmlns="http://www.garmin.com/xmlschemas/ActivityExtension/v2">
                <Watts>75</Watts>
              </TPX>
            </Extensions>
          </Trackpoint>
          <Trackpoint>
            <Time>2010-10-19T20:57:32Z</Time>
            <AltitudeMeters>0.0</AltitudeMeters>
            <HeartRateBpm>
              <Value>93</Value>
            </HeartRateBpm>
            <Cadence>75</Cadence>
            <DistanceMeters>0.00000</DistanceMeters>
            <Extensions>
              <TPX xmlns="http://www.garmin.com/xmlschemas/ActivityExtension/v2">
                <Watts>74</Watts>
              </TPX>
            </Extensions>
          </Trackpoint>
          <Trackpoint>
            <Time>2010-10-19T20:57:33Z</Time>
            <AltitudeMeters>0.0</AltitudeMeters>
            <HeartRateBpm>
              <Value>93</Value>
            </HeartRateBpm>
            <Cadence>75</Cadence>
            <DistanceMeters>0.00000</DistanceMeters>
            <Extensions>
              <TPX xmlns="http://www.garmin.com/xmlschemas/ActivityExtension/v2">
                <Watts>74</Watts>
              </TPX>
            </Extensions>
          </Trackpoint>
          <Trackpoint>
            <Time>2010-10-19T20:57:34Z</Time>
            <AltitudeMeters>0.0</AltitudeMeters>
            <HeartRateBpm>
              <Value>93</Value>
            </HeartRateBpm>
            <Cadence>74</Cadence>
            <DistanceMeters>0.00000</DistanceMeters>
            <Extensions>
              <TPX xmlns="http://www.garmin.com/xmlschemas/ActivityExtension/v2">
                <Watts>74</Watts>
              </TPX>
            </Extensions>
          </Trackpoint>
        </Track>
      </Lap>
    </Activity>
  </Activities>
</TrainingCenterDatabase>
